CCSDS_OMM_VERS = 2.0
CREATION_DATE  = 
ORIGINATOR     = 

OBJECT_NAME    = SL-16 R/B
OBJECT_ID      = 1998-043G
CENTER_NAME    = EARTH
REF_FRAME      = TEME
TIME_SYSTEM    = UTC
MEAN_ELEMENT_THEORY = SGP/SGP4

EPOCH          = 2026-03-02T20:32:02.779008
MEAN_MOTION    = 14.26047932
ECCENTRICITY   = .00105506
INCLINATION    = 98.8243
RA_OF_ASC_NODE = 15.1711
ARG_OF_PERICENTER = 39.2642
MEAN_ANOMALY   = 320.9300

EPHEMERIS_TYPE = 0
CLASSIFICATION_TYPE = U
NORAD_CAT_ID   = 25400
ELEMENT_SET_NO = 999
REV_AT_EPOCH   = 43801
BSTAR          = .51498448E-4
MEAN_MOTION_DOT = .78E-6
MEAN_MOTION_DDOT = 0

CCSDS_OMM_VERS = 2.0
CREATION_DATE  = 
ORIGINATOR     = 

OBJECT_NAME    = SL-16 R/B
OBJECT_ID      = 1998-045B
CENTER_NAME    = EARTH
REF_FRAME      = TEME
TIME_SYSTEM    = UTC
MEAN_ELEMENT_THEORY = SGP/SGP4

EPOCH          = 2026-03-02T19:01:03.213984
MEAN_MOTION    = 14.16189648
ECCENTRICITY   = .00063447
INCLINATION    = 71.0112
RA_OF_ASC_NODE = 196.0774
ARG_OF_PERICENTER = 18.8432
MEAN_ANOMALY   = 341.2924

EPHEMERIS_TYPE = 0
CLASSIFICATION_TYPE = U
NORAD_CAT_ID   = 25407
ELEMENT_SET_NO = 999
REV_AT_EPOCH   = 42612
BSTAR          = -.96011898E-4
MEAN_MOTION_DOT = -.238E-5
MEAN_MOTION_DDOT = 0

CCSDS_OMM_VERS = 2.0
CREATION_DATE  = 
ORIGINATOR     = 

OBJECT_NAME    = ISS (ZARYA)
OBJECT_ID      = 1998-067A
CENTER_NAME    = EARTH
REF_FRAME      = TEME
TIME_SYSTEM    = UTC
MEAN_ELEMENT_THEORY = SGP/SGP4

EPOCH          = 2026-03-02T22:19:59.515680
MEAN_MOTION    = 15.48408287
ECCENTRICITY   = .0008215
INCLINATION    = 51.6319
RA_OF_ASC_NODE = 105.7724
ARG_OF_PERICENTER = 150.8374
MEAN_ANOMALY   = 209.3074

EPHEMERIS_TYPE = 0
CLASSIFICATION_TYPE = U
NORAD_CAT_ID   = 25544
ELEMENT_SET_NO = 999
REV_AT_EPOCH   = 55528
BSTAR          = .18075E-3
MEAN_MOTION_DOT = .9325E-4
MEAN_MOTION_DDOT = 0

CCSDS_OMM_VERS = 2.0
CREATION_DATE  = 
ORIGINATOR     = 

OBJECT_NAME    = CZ-4B R/B
OBJECT_ID      = 1999-025C
CENTER_NAME    = EARTH
REF_FRAME      = TEME
TIME_SYSTEM    = UTC
MEAN_ELEMENT_THEORY = SGP/SGP4

EPOCH          = 2026-03-03T02:28:30.715392
MEAN_MOTION    = 14.18263792
ECCENTRICITY   = .003712
INCLINATION    = 98.6640
RA_OF_ASC_NODE = 106.5404
ARG_OF_PERICENTER = 5.6258
MEAN_ANOMALY   = 48.8396

EPHEMERIS_TYPE = 0
CLASSIFICATION_TYPE = U
NORAD_CAT_ID   = 25732
ELEMENT_SET_NO = 999
REV_AT_EPOCH   = 38723
BSTAR          = .56463E-4
MEAN_MOTION_DOT = .74E-6
MEAN_MOTION_DDOT = 0

CCSDS_OMM_VERS = 2.0
CREATION_DATE  = 
ORIGINATOR     = 

OBJECT_NAME    = OKEAN-O
OBJECT_ID      = 1999-039A
CENTER_NAME    = EARTH
REF_FRAME      = TEME
TIME_SYSTEM    = UTC
MEAN_ELEMENT_THEORY = SGP/SGP4

EPOCH          = 2026-03-03T03:54:41.796000
MEAN_MOTION    = 14.80322800
ECCENTRICITY   = .0001453
INCLINATION    = 97.9456
RA_OF_ASC_NODE = 122.1204
ARG_OF_PERICENTER = 71.2203
MEAN_ANOMALY   = 288.9166

EPHEMERIS_TYPE = 0
CLASSIFICATION_TYPE = U
NORAD_CAT_ID   = 25860
ELEMENT_SET_NO = 999
REV_AT_EPOCH   = 43342
BSTAR          = .11112E-3
MEAN_MOTION_DOT = .795E-5
MEAN_MOTION_DDOT = 0

CCSDS_OMM_VERS = 2.0
CREATION_DATE  = 
ORIGINATOR     = 

OBJECT_NAME    = SL-16 R/B
OBJECT_ID      = 1999-039B
CENTER_NAME    = EARTH
REF_FRAME      = TEME
TIME_SYSTEM    = UTC
MEAN_ELEMENT_THEORY = SGP/SGP4

EPOCH          = 2026-03-03T03:34:33.550752
MEAN_MOTION    = 14.81720640
ECCENTRICITY   = .0013453
INCLINATION    = 97.9980
RA_OF_ASC_NODE = 121.2550
ARG_OF_PERICENTER = 279.5676
MEAN_ANOMALY   = 80.4016

EPHEMERIS_TYPE = 0
CLASSIFICATION_TYPE = U
NORAD_CAT_ID   = 25861
ELEMENT_SET_NO = 999
REV_AT_EPOCH   = 43589
BSTAR          = .96997E-4
MEAN_MOTION_DOT = .711E-5
MEAN_MOTION_DDOT = 0

CCSDS_OMM_VERS = 2.0
CREATION_DATE  = 
ORIGINATOR     = 

OBJECT_NAME    = DELTA 2 R/B
OBJECT_ID      = 1999-041E
CENTER_NAME    = EARTH
REF_FRAME      = TEME
TIME_SYSTEM    = UTC
MEAN_ELEMENT_THEORY = SGP/SGP4

EPOCH          = 2026-03-03T01:41:23.443872
MEAN_MOTION    = 14.11813362
ECCENTRICITY   = .0502356
INCLINATION    = 51.7651
RA_OF_ASC_NODE = 327.7179
ARG_OF_PERICENTER = 328.8923
MEAN_ANOMALY   = 28.3138

EPHEMERIS_TYPE = 0
CLASSIFICATION_TYPE = U
NORAD_CAT_ID   = 25876
ELEMENT_SET_NO = 999
REV_AT_EPOCH   = 36209
BSTAR          = .31034E-3
MEAN_MOTION_DOT = .1695E-4
MEAN_MOTION_DDOT = 0

CCSDS_OMM_VERS = 2.0
CREATION_DATE  = 
ORIGINATOR     = 

OBJECT_NAME    = HELIOS 1B
OBJECT_ID      = 1999-064A
CENTER_NAME    = EARTH
REF_FRAME      = TEME
TIME_SYSTEM    = UTC
MEAN_ELEMENT_THEORY = SGP/SGP4

EPOCH          = 2026-03-03T02:56:16.649952
MEAN_MOTION    = 14.87664420
ECCENTRICITY   = .0002519
INCLINATION    = 98.1704
RA_OF_ASC_NODE = 324.1726
ARG_OF_PERICENTER = 83.9486
MEAN_ANOMALY   = 276.2016

EPHEMERIS_TYPE = 0
CLASSIFICATION_TYPE = U
NORAD_CAT_ID   = 25977
ELEMENT_SET_NO = 999
REV_AT_EPOCH   = 68428
BSTAR          = .25521E-3
MEAN_MOTION_DOT = .2265E-4
MEAN_MOTION_DDOT = 0

CCSDS_OMM_VERS = 2.0
CREATION_DATE  = 
ORIGINATOR     = 

OBJECT_NAME    = TERRA
OBJECT_ID      = 1999-068A
CENTER_NAME    = EARTH
REF_FRAME      = TEME
TIME_SYSTEM    = UTC
MEAN_ELEMENT_THEORY = SGP/SGP4

EPOCH          = 2026-03-03T03:12:29.210688
MEAN_MOTION    = 14.61006268
ECCENTRICITY   = .0002257
INCLINATION    = 97.9607
RA_OF_ASC_NODE = 115.8185
ARG_OF_PERICENTER = 167.8691
MEAN_ANOMALY   = 217.2698

EPHEMERIS_TYPE = 0
CLASSIFICATION_TYPE = U
NORAD_CAT_ID   = 25994
ELEMENT_SET_NO = 999
REV_AT_EPOCH   = 39412
BSTAR          = .11359E-3
MEAN_MOTION_DOT = .513E-5
MEAN_MOTION_DDOT = 0

CCSDS_OMM_VERS = 2.0
CREATION_DATE  = 
ORIGINATOR     = 

OBJECT_NAME    = SL-16 R/B
OBJECT_ID      = 2000-006B
CENTER_NAME    = EARTH
REF_FRAME      = TEME
TIME_SYSTEM    = UTC
MEAN_ELEMENT_THEORY = SGP/SGP4

EPOCH          = 2026-03-03T03:49:22.920384
MEAN_MOTION    = 14.15824224
ECCENTRICITY   = .0017234
INCLINATION    = 71.0013
RA_OF_ASC_NODE = 111.5695
ARG_OF_PERICENTER = 199.1869
MEAN_ANOMALY   = 160.8607

EPHEMERIS_TYPE = 0
CLASSIFICATION_TYPE = U
NORAD_CAT_ID   = 26070
ELEMENT_SET_NO = 999
REV_AT_EPOCH   = 34763
BSTAR          = .14621E-3
MEAN_MOTION_DOT = .24E-5
MEAN_MOTION_DDOT = 0

CCSDS_OMM_VERS = 2.0
CREATION_DATE  = 
ORIGINATOR     = 

OBJECT_NAME    = TITAN 4B R/B
OBJECT_ID      = 2000-047B
CENTER_NAME    = EARTH
REF_FRAME      = TEME
TIME_SYSTEM    = UTC
MEAN_ELEMENT_THEORY = SGP/SGP4

EPOCH          = 2026-03-03T03:17:03.516000
MEAN_MOTION    = 15.09484626
ECCENTRICITY   = .0037956
INCLINATION    = 67.9882
RA_OF_ASC_NODE = 58.9354
ARG_OF_PERICENTER = 43.1985
MEAN_ANOMALY   = 317.2131

EPHEMERIS_TYPE = 0
CLASSIFICATION_TYPE = U
NORAD_CAT_ID   = 26474
ELEMENT_SET_NO = 999
REV_AT_EPOCH   = 39192
BSTAR          = .3057E-3
MEAN_MOTION_DOT = .4858E-4
MEAN_MOTION_DDOT = 0

CCSDS_OMM_VERS = 2.0
CREATION_DATE  = 
ORIGINATOR     = 

OBJECT_NAME    = ENVISAT
OBJECT_ID      = 2002-009A
CENTER_NAME    = EARTH
REF_FRAME      = TEME
TIME_SYSTEM    = UTC
MEAN_ELEMENT_THEORY = SGP/SGP4

EPOCH          = 2026-03-02T20:36:28.375200
MEAN_MOTION    = 14.39033896
ECCENTRICITY   = .0001346
INCLINATION    = 98.3717
RA_OF_ASC_NODE = 15.6191
ARG_OF_PERICENTER = 84.9534
MEAN_ANOMALY   = 290.4970

EPHEMERIS_TYPE = 0
CLASSIFICATION_TYPE = U
NORAD_CAT_ID   = 27386
ELEMENT_SET_NO = 999
REV_AT_EPOCH   = 25819
BSTAR          = .64555552E-4
MEAN_MOTION_DOT = .157E-5
MEAN_MOTION_DDOT = 0

